[{"OBJECT_NAME":"TITAN 4 CENTAUR R/B","OBJECT_ID":"2003-012B","EPOCH":"2026-03-27T23:10:29.269920","MEAN_MOTION":1.00586025,"ECCENTRICITY":0.00243284,"INCLINATION":11.0655,"RA_OF_ASC_NODE":23.7652,"ARG_OF_PERICENTER":277.7457,"MEAN_ANOMALY":81.9702,"EPHEMERIS_TYPE":0,"CLASSIFICATION_TYPE":"U","NORAD_CAT_ID":27712,"ELEMENT_SET_NO":999,"REV_AT_EPOCH":2497,"BSTAR":0,"MEAN_MOTION_DOT":8.1e-7,"MEAN_MOTION_DDOT":0},{"OBJECT_NAME":"INSAT-3A","OBJECT_ID":"2003-013A","EPOCH":"2026-03-28T20:23:10.870368","MEAN_MOTION":0.997984,"ECCENTRICITY":0.0011278,"INCLINATION":8.6389,"RA_OF_ASC_NODE":61.869,"ARG_OF_PERICENTER":311.3923,"MEAN_ANOMALY":217.1327,"EPHEMERIS_TYPE":0,"CLASSIFICATION_TYPE":"U","NORAD_CAT_ID":27714,"ELEMENT_SET_NO":999,"REV_AT_EPOCH":8392,"BSTAR":0,"MEAN_MOTION_DOT":-2.16e-6,"MEAN_MOTION_DDOT":0},{"OBJECT_NAME":"ARIANE 5 R/B","OBJECT_ID":"2003-013C","EPOCH":"2026-03-28T19:38:57.883200","MEAN_MOTION":2.24036668,"ECCENTRICITY":0.7075503,"INCLINATION":1.3419,"RA_OF_ASC_NODE":268.5161,"ARG_OF_PERICENTER":331.7737,"MEAN_ANOMALY":195.2897,"EPHEMERIS_TYPE":0,"CLASSIFICATION_TYPE":"U","NORAD_CAT_ID":27716,"ELEMENT_SET_NO":999,"REV_AT_EPOCH":18803,"BSTAR":0.0040004,"MEAN_MOTION_DOT":-3.0e-7,"MEAN_MOTION_DDOT":0},{"OBJECT_NAME":"ARIANE 5 DEB [SYLDA]","OBJECT_ID":"2003-013D","EPOCH":"2026-03-28T19:43:19.963776","MEAN_MOTION":2.22470049,"ECCENTRICITY":0.7081122,"INCLINATION":1.8477,"RA_OF_ASC_NODE":281.0347,"ARG_OF_PERICENTER":292.9305,"MEAN_ANOMALY":304.9395,"EPHEMERIS_TYPE":0,"CLASSIFICATION_TYPE":"U","NORAD_CAT_ID":27717,"ELEMENT_SET_NO":999,"REV_AT_EPOCH":18673,"BSTAR":0.0012718,"MEAN_MOTION_DOT":-2.21e-6,"MEAN_MOTION_DDOT":0},{"OBJECT_NAME":"ASIASAT 4","OBJECT_ID":"2003-014A","EPOCH":"2026-03-28T17:44:51.656928","MEAN_MOTION":1.00271011,"ECCENTRICITY":0.0002668,"INCLINATION":4.499,"RA_OF_ASC_NODE":76.7428,"ARG_OF_PERICENTER":296.9125,"MEAN_ANOMALY":226.2622,"EPHEMERIS_TYPE":0,"CLASSIFICATION_TYPE":"U","NORAD_CAT_ID":27718,"ELEMENT_SET_NO":999,"REV_AT_EPOCH":4449,"BSTAR":0,"MEAN_MOTION_DOT":-2.38e-6,"MEAN_MOTION_DDOT":0},{"OBJECT_NAME":"ARIANE 1 DEB","OBJECT_ID":"1979-104S","EPOCH":"2026-03-24T10:45:27.373536","MEAN_MOTION":1.93130899,"ECCENTRICITY":0.73104492,"INCLINATION":16.5768,"RA_OF_ASC_NODE":25.9405,"ARG_OF_PERICENTER":147.8895,"MEAN_ANOMALY":292.4294,"EPHEMERIS_TYPE":0,"CLASSIFICATION_TYPE":"U","NORAD_CAT_ID":27732,"ELEMENT_SET_NO":999,"REV_AT_EPOCH":8440,"BSTAR":0.024223705,"MEAN_MOTION_DOT":5.2e-7,"MEAN_MOTION_DDOT":0},{"OBJECT_NAME":"COSMOS 2397","OBJECT_ID":"2003-015A","EPOCH":"2026-03-28T07:27:10.058112","MEAN_MOTION":1.00489033,"ECCENTRICITY":0.00434415,"INCLINATION":12.6124,"RA_OF_ASC_NODE":20.6503,"ARG_OF_PERICENTER":7.144,"MEAN_ANOMALY":166.9227,"EPHEMERIS_TYPE":0,"CLASSIFICATION_TYPE":"U","NORAD_CAT_ID":27775,"ELEMENT_SET_NO":999,"REV_AT_EPOCH":8410,"BSTAR":0,"MEAN_MOTION_DOT":-1.66e-6,"MEAN_MOTION_DDOT":0},{"OBJECT_NAME":"SL-12 R/B(2)","OBJECT_ID":"2003-015F","EPOCH":"2026-03-28T17:07:21.857952","MEAN_MOTION":1.00275567,"ECCENTRICITY":0.0010395,"INCLINATION":12.6608,"RA_OF_ASC_NODE":20.9783,"ARG_OF_PERICENTER":33.9066,"MEAN_ANOMALY":159.8784,"EPHEMERIS_TYPE":0,"CLASSIFICATION_TYPE":"U","NORAD_CAT_ID":27780,"ELEMENT_SET_NO":999,"REV_AT_EPOCH":8369,"BSTAR":0,"MEAN_MOTION_DOT":-3.53e-6,"MEAN_MOTION_DDOT":0},{"OBJECT_NAME":"ATLAS AGENA R/B","OBJECT_ID":"1968-063B","EPOCH":"2026-03-26T14:47:53.197152","MEAN_MOTION":1.01774964,"ECCENTRICITY":0.1015965,"INCLINATION":4.5954,"RA_OF_ASC_NODE":266.6793,"ARG_OF_PERICENTER":264.4126,"MEAN_ANOMALY":83.6094,"EPHEMERIS_TYPE":0,"CLASSIFICATION_TYPE":"U","NORAD_CAT_ID":27785,"ELEMENT_SET_NO":999,"REV_AT_EPOCH":2554,"BSTAR":0,"MEAN_MOTION_DOT":-3.6e-7,"MEAN_MOTION_DDOT":0},{"OBJECT_NAME":"ATLAS AGENA R/B","OBJECT_ID":"1969-036B","EPOCH":"2026-03-28T03:31:46.465248","MEAN_MOTION":1.03852725,"ECCENTRICITY":0.1061186,"INCLINATION":14.2988,"RA_OF_ASC_NODE":27.341,"ARG_OF_PERICENTER":247.1579,"MEAN_ANOMALY":101.3355,"EPHEMERIS_TYPE":0,"CLASSIFICATION_TYPE":"U","NORAD_CAT_ID":27786,"ELEMENT_SET_NO":999,"REV_AT_EPOCH":2597,"BSTAR":0,"MEAN_MOTION_DOT":-1.23e-6,"MEAN_MOTION_DDOT":0},{"OBJECT_NAME":"ATLAS AGENA R/B","OBJECT_ID":"1970-069B","EPOCH":"2026-03-28T11:42:15.720480","MEAN_MOTION":1.01705796,"ECCENTRICITY":0.11983577,"INCLINATION":11.5454,"RA_OF_ASC_NODE":137.0237,"ARG_OF_PERICENTER":187.576,"MEAN_ANOMALY":170.5316,"EPHEMERIS_TYPE":0,"CLASSIFICATION_TYPE":"U","NORAD_CAT_ID":27787,"ELEMENT_SET_NO":999,"REV_AT_EPOCH":2619,"BSTAR":0,"MEAN_MOTION_DOT":-1.96e-6,"MEAN_MOTION_DDOT":0},{"OBJECT_NAME":"COSMOS 1261 DEB","OBJECT_ID":"1981-031H","EPOCH":"2026-03-22T16:28:26.887584","MEAN_MOTION":2.01751864,"ECCENTRICITY":0.69498167,"INCLINATION":65.457,"RA_OF_ASC_NODE":4.1058,"ARG_OF_PERICENTER":18.0028,"MEAN_ANOMALY":357.5553,"EPHEMERIS_TYPE":0,"CLASSIFICATION_TYPE":"U","NORAD_CAT_ID":27796,"ELEMENT_SET_NO":999,"REV_AT_EPOCH":18412,"BSTAR":0,"MEAN_MOTION_DOT":-9.92e-6,"MEAN_MOTION_DDOT":0},{"OBJECT_NAME":"COSMOS 1285 DEB","OBJECT_ID":"1981-071P","EPOCH":"2026-03-28T02:07:33.581568","MEAN_MOTION":1.97633312,"ECCENTRICITY":0.71229232,"INCLINATION":64.4101,"RA_OF_ASC_NODE":76.7079,"ARG_OF_PERICENTER":35.2732,"MEAN_ANOMALY":355.5889,"EPHEMERIS_TYPE":0,"CLASSIFICATION_TYPE":"U","NORAD_CAT_ID":27800,"ELEMENT_SET_NO":999,"REV_AT_EPOCH":19180,"BSTAR":0,"MEAN_MOTION_DOT":9.45e-6,"MEAN_MOTION_DDOT":0},{"OBJECT_NAME":"COSMOS 1285 DEB","OBJECT_ID":"1981-071Q","EPOCH":"2026-03-25T03:15:40.101120","MEAN_MOTION":1.97986469,"ECCENTRICITY":0.72363401,"INCLINATION":64.0545,"RA_OF_ASC_NODE":48.9169,"ARG_OF_PERICENTER":38.1756,"MEAN_ANOMALY":355.3363,"EPHEMERIS_TYPE":0,"CLASSIFICATION_TYPE":"U","NORAD_CAT_ID":27801,"ELEMENT_SET_NO":999,"REV_AT_EPOCH":18190,"BSTAR":0,"MEAN_MOTION_DOT":-2.83e-6,"MEAN_MOTION_DDOT":0},{"OBJECT_NAME":"GSAT-2","OBJECT_ID":"2003-018A","EPOCH":"2026-03-28T11:38:16.443456","MEAN_MOTION":0.99841602,"ECCENTRICITY":0.00119888,"INCLINATION":11.0205,"RA_OF_ASC_NODE":42.3794,"ARG_OF_PERICENTER":339.4995,"MEAN_ANOMALY":36.6635,"EPHEMERIS_TYPE":0,"CLASSIFICATION_TYPE":"U","NORAD_CAT_ID":27807,"ELEMENT_SET_NO":999,"REV_AT_EPOCH":8363,"BSTAR":0,"MEAN_MOTION_DOT":8.4e-7,"MEAN_MOTION_DDOT":0},{"OBJECT_NAME":"HELLAS-SAT 2","OBJECT_ID":"2003-020A","EPOCH":"2026-03-28T18:09:38.386656","MEAN_MOTION":1.00271915,"ECCENTRICITY":0.0006358,"INCLINATION":7.1562,"RA_OF_ASC_NODE":68.8318,"ARG_OF_PERICENTER":261.3408,"MEAN_ANOMALY":118.3861,"EPHEMERIS_TYPE":0,"CLASSIFICATION_TYPE":"U","NORAD_CAT_ID":27811,"ELEMENT_SET_NO":999,"REV_AT_EPOCH":4204,"BSTAR":0,"MEAN_MOTION_DOT":-9.8e-7,"MEAN_MOTION_DDOT":0},{"OBJECT_NAME":"BEIDOU-1 G3","OBJECT_ID":"2003-021A","EPOCH":"2026-03-27T23:35:06.967392","MEAN_MOTION":0.99770501,"ECCENTRICITY":0.00193953,"INCLINATION":11.2222,"RA_OF_ASC_NODE":41.9075,"ARG_OF_PERICENTER":303.59,"MEAN_ANOMALY":236.5575,"EPHEMERIS_TYPE":0,"CLASSIFICATION_TYPE":"U","NORAD_CAT_ID":27813,"ELEMENT_SET_NO":999,"REV_AT_EPOCH":8349,"BSTAR":0,"MEAN_MOTION_DOT":1.09e-6,"MEAN_MOTION_DDOT":0}]
