TITAN 4 CENTAUR R/B     
1 27712U 03012B   26086.96561655  .00000081  00000+0  00000+0 0  9997
2 27712  11.0655  23.7652 0024328 277.7457  81.9702  1.00586025 24978
INSAT-3A                
1 27714U 03013A   26087.84943137 -.00000216  00000+0  00000+0 0  9998
2 27714   8.6389  61.8690 0011278 311.3923 217.1327  0.99798400 83929
ARIANE 5 R/B            
1 27716U 03013C   26087.81872550 -.00000030  00000+0  40004-2 0  9992
2 27716   1.3419 268.5161 7075503 331.7737 195.2897  2.24036668188038
ARIANE 5 DEB [SYLDA]    
1 27717U 03013D   26087.82175884 -.00000221  00000+0  12718-2 0  9993
2 27717   1.8477 281.0347 7081122 292.9305 304.9395  2.22470049186737
ASIASAT 4               
1 27718U 03014A   26087.73948677 -.00000238  00000+0  00000+0 0  9999
2 27718   4.4990  76.7428 0002668 296.9125 226.2622  1.00271011 44499
ARIANE 1 DEB            
1 27732U 79104S   26083.44823349  .00000052  00000+0  24224-1 0  9999
2 27732  16.5768  25.9405 7310449 147.8895 292.4294  1.93130899 84402
COSMOS 2397             
1 27775U 03015A   26087.31053308 -.00000166  00000+0  00000+0 0  9995
2 27775  12.6124  20.6503 0043441   7.1440 166.9227  1.00489033 84108
SL-12 R/B(2)            
1 27780U 03015F   26087.71344743 -.00000353  00000+0  00000+0 0  9999
2 27780  12.6608  20.9783 0010395  33.9066 159.8784  1.00275567 83694
ATLAS AGENA R/B         
1 27785U 68063B   26085.61658793 -.00000036  00000+0  00000+0 0  9996
2 27785   4.5954 266.6793 1015965 264.4126  83.6094  1.01774964 25544
ATLAS AGENA R/B         
1 27786U 69036B   26087.14706557 -.00000123  00000+0  00000+0 0  9997
2 27786  14.2988  27.3410 1061186 247.1579 101.3355  1.03852725 25973
ATLAS AGENA R/B         
1 27787U 70069B   26087.48768195 -.00000196  00000+0  00000+0 0  9999
2 27787  11.5454 137.0237 1198357 187.5760 170.5316  1.01705796 26191
COSMOS 1261 DEB         
1 27796U 81031H   26081.68642231 -.00000992  00000+0  00000+0 0  9992
2 27796  65.4570   4.1058 6949816  18.0028 357.5553  2.01751864184123
COSMOS 1285 DEB         
1 27800U 81071P   26087.08858312  .00000945  00000+0  00000+0 0  9998
2 27800  64.4101  76.7079 7122923  35.2732 355.5889  1.97633312191806
COSMOS 1285 DEB         
1 27801U 81071Q   26084.13588080 -.00000283  00000+0  00000+0 0  9990
2 27801  64.0545  48.9169 7236340  38.1756 355.3363  1.97986469181902
GSAT-2                  
1 27807U 03018A   26087.48491254  .00000084  00000+0  00000+0 0  9996
2 27807  11.0205  42.3794 0011988 339.4995  36.6635  0.99841602 83631
HELLAS-SAT 2            
1 27811U 03020A   26087.75669429 -.00000098  00000+0  00000+0 0  9991
2 27811   7.1562  68.8318 0006358 261.3408 118.3861  1.00271915 42046
BEIDOU-1 G3             
1 27813U 03021A   26086.98271953  .00000109  00000+0  00000+0 0  9991
2 27813  11.2222  41.9075 0019395 303.5900 236.5575  0.99770501 83491
